CCSDS_OMM_VERS = 2.0
CREATION_DATE  = 
ORIGINATOR     = 

OBJECT_NAME    = SL-16 R/B
OBJECT_ID      = 1998-043G
CENTER_NAME    = EARTH
REF_FRAME      = TEME
TIME_SYSTEM    = UTC
MEAN_ELEMENT_THEORY = SGP/SGP4

EPOCH          = 2026-02-19T20:09:28.766592
MEAN_MOTION    = 14.26045270
ECCENTRICITY   = .0010889
INCLINATION    = 98.8224
RA_OF_ASC_NODE = 4.0803
ARG_OF_PERICENTER = 68.2881
MEAN_ANOMALY   = 291.9457

EPHEMERIS_TYPE = 0
CLASSIFICATION_TYPE = U
NORAD_CAT_ID   = 25400
ELEMENT_SET_NO = 999
REV_AT_EPOCH   = 43644
BSTAR          = .41472E-4
MEAN_MOTION_DOT = .54E-6
MEAN_MOTION_DDOT = 0

CCSDS_OMM_VERS = 2.0
CREATION_DATE  = 
ORIGINATOR     = 

OBJECT_NAME    = SL-16 R/B
OBJECT_ID      = 1998-045B
CENTER_NAME    = EARTH
REF_FRAME      = TEME
TIME_SYSTEM    = UTC
MEAN_ELEMENT_THEORY = SGP/SGP4

EPOCH          = 2026-02-19T20:15:45.606240
MEAN_MOTION    = 14.16190680
ECCENTRICITY   = .0005821
INCLINATION    = 71.0095
RA_OF_ASC_NODE = 219.1006
ARG_OF_PERICENTER = 39.1196
MEAN_ANOMALY   = 321.0347

EPHEMERIS_TYPE = 0
CLASSIFICATION_TYPE = U
NORAD_CAT_ID   = 25407
ELEMENT_SET_NO = 999
REV_AT_EPOCH   = 42457
BSTAR          = .10055E-3
MEAN_MOTION_DOT = .151E-5
MEAN_MOTION_DDOT = 0

CCSDS_OMM_VERS = 2.0
CREATION_DATE  = 
ORIGINATOR     = 

OBJECT_NAME    = ISS (ZARYA)
OBJECT_ID      = 1998-067A
CENTER_NAME    = EARTH
REF_FRAME      = TEME
TIME_SYSTEM    = UTC
MEAN_ELEMENT_THEORY = SGP/SGP4

EPOCH          = 2026-02-20T05:11:11.637888
MEAN_MOTION    = 15.48153499
ECCENTRICITY   = .00085755
INCLINATION    = 51.6324
RA_OF_ASC_NODE = 158.7245
ARG_OF_PERICENTER = 115.0388
MEAN_ANOMALY   = 245.1491

EPHEMERIS_TYPE = 0
CLASSIFICATION_TYPE = U
NORAD_CAT_ID   = 25544
ELEMENT_SET_NO = 999
REV_AT_EPOCH   = 55362
BSTAR          = .18283655E-3
MEAN_MOTION_DOT = .9352E-4
MEAN_MOTION_DDOT = 0

CCSDS_OMM_VERS = 2.0
CREATION_DATE  = 
ORIGINATOR     = 

OBJECT_NAME    = CZ-4B R/B
OBJECT_ID      = 1999-025C
CENTER_NAME    = EARTH
REF_FRAME      = TEME
TIME_SYSTEM    = UTC
MEAN_ELEMENT_THEORY = SGP/SGP4

EPOCH          = 2026-02-20T02:12:58.458528
MEAN_MOTION    = 14.18261655
ECCENTRICITY   = .00377015
INCLINATION    = 98.6664
RA_OF_ASC_NODE = 95.7877
ARG_OF_PERICENTER = 37.0038
MEAN_ANOMALY   = 350.8363

EPHEMERIS_TYPE = 0
CLASSIFICATION_TYPE = U
NORAD_CAT_ID   = 25732
ELEMENT_SET_NO = 999
REV_AT_EPOCH   = 38567
BSTAR          = .43294266E-4
MEAN_MOTION_DOT = .47E-6
MEAN_MOTION_DDOT = 0

CCSDS_OMM_VERS = 2.0
CREATION_DATE  = 
ORIGINATOR     = 

OBJECT_NAME    = OKEAN-O
OBJECT_ID      = 1999-039A
CENTER_NAME    = EARTH
REF_FRAME      = TEME
TIME_SYSTEM    = UTC
MEAN_ELEMENT_THEORY = SGP/SGP4

EPOCH          = 2026-02-20T03:28:56.817984
MEAN_MOTION    = 14.80304976
ECCENTRICITY   = .00016831
INCLINATION    = 97.9482
RA_OF_ASC_NODE = 111.2116
ARG_OF_PERICENTER = 78.7943
MEAN_ANOMALY   = 281.3458

EPHEMERIS_TYPE = 0
CLASSIFICATION_TYPE = U
NORAD_CAT_ID   = 25860
ELEMENT_SET_NO = 999
REV_AT_EPOCH   = 43179
BSTAR          = .85687849E-4
MEAN_MOTION_DOT = .601E-5
MEAN_MOTION_DDOT = 0

CCSDS_OMM_VERS = 2.0
CREATION_DATE  = 
ORIGINATOR     = 

OBJECT_NAME    = SL-16 R/B
OBJECT_ID      = 1999-039B
CENTER_NAME    = EARTH
REF_FRAME      = TEME
TIME_SYSTEM    = UTC
MEAN_ELEMENT_THEORY = SGP/SGP4

EPOCH          = 2026-02-20T03:23:48.092640
MEAN_MOTION    = 14.81705045
ECCENTRICITY   = .00138215
INCLINATION    = 98.0006
RA_OF_ASC_NODE = 110.2608
ARG_OF_PERICENTER = 318.2283
MEAN_ANOMALY   = 41.7874

EPHEMERIS_TYPE = 0
CLASSIFICATION_TYPE = U
NORAD_CAT_ID   = 25861
ELEMENT_SET_NO = 999
REV_AT_EPOCH   = 43426
BSTAR          = .7068563E-4
MEAN_MOTION_DOT = .503E-5
MEAN_MOTION_DDOT = 0

CCSDS_OMM_VERS = 2.0
CREATION_DATE  = 
ORIGINATOR     = 

OBJECT_NAME    = DELTA 2 R/B
OBJECT_ID      = 1999-041E
CENTER_NAME    = EARTH
REF_FRAME      = TEME
TIME_SYSTEM    = UTC
MEAN_ELEMENT_THEORY = SGP/SGP4

EPOCH          = 2026-02-20T05:44:06.811008
MEAN_MOTION    = 14.11770715
ECCENTRICITY   = .05022226
INCLINATION    = 51.7662
RA_OF_ASC_NODE = 10.9708
ARG_OF_PERICENTER = 296.9009
MEAN_ANOMALY   = 58.1443

EPHEMERIS_TYPE = 0
CLASSIFICATION_TYPE = U
NORAD_CAT_ID   = 25876
ELEMENT_SET_NO = 999
REV_AT_EPOCH   = 36056
BSTAR          = .26104145E-3
MEAN_MOTION_DOT = .1388E-4
MEAN_MOTION_DDOT = 0

CCSDS_OMM_VERS = 2.0
CREATION_DATE  = 
ORIGINATOR     = 

OBJECT_NAME    = HELIOS 1B
OBJECT_ID      = 1999-064A
CENTER_NAME    = EARTH
REF_FRAME      = TEME
TIME_SYSTEM    = UTC
MEAN_ELEMENT_THEORY = SGP/SGP4

EPOCH          = 2026-02-20T05:25:32.073024
MEAN_MOTION    = 14.87620158
ECCENTRICITY   = .00023552
INCLINATION    = 98.1715
RA_OF_ASC_NODE = 312.9549
ARG_OF_PERICENTER = 98.8337
MEAN_ANOMALY   = 261.3145

EPHEMERIS_TYPE = 0
CLASSIFICATION_TYPE = U
NORAD_CAT_ID   = 25977
ELEMENT_SET_NO = 999
REV_AT_EPOCH   = 68266
BSTAR          = .18241872E-3
MEAN_MOTION_DOT = .16E-4
MEAN_MOTION_DDOT = 0

CCSDS_OMM_VERS = 2.0
CREATION_DATE  = 
ORIGINATOR     = 

OBJECT_NAME    = TERRA
OBJECT_ID      = 1999-068A
CENTER_NAME    = EARTH
REF_FRAME      = TEME
TIME_SYSTEM    = UTC
MEAN_ELEMENT_THEORY = SGP/SGP4

EPOCH          = 2026-02-20T06:05:15.158688
MEAN_MOTION    = 14.60994334
ECCENTRICITY   = .00014611
INCLINATION    = 97.9632
RA_OF_ASC_NODE = 105.3512
ARG_OF_PERICENTER = 202.2923
MEAN_ANOMALY   = 232.4588

EPHEMERIS_TYPE = 0
CLASSIFICATION_TYPE = U
NORAD_CAT_ID   = 25994
ELEMENT_SET_NO = 999
REV_AT_EPOCH   = 39253
BSTAR          = .82836152E-4
MEAN_MOTION_DOT = .362E-5
MEAN_MOTION_DDOT = 0

CCSDS_OMM_VERS = 2.0
CREATION_DATE  = 
ORIGINATOR     = 

OBJECT_NAME    = SL-16 R/B
OBJECT_ID      = 2000-006B
CENTER_NAME    = EARTH
REF_FRAME      = TEME
TIME_SYSTEM    = UTC
MEAN_ELEMENT_THEORY = SGP/SGP4

EPOCH          = 2026-02-20T04:59:57.024096
MEAN_MOTION    = 14.15818370
ECCENTRICITY   = .00178759
INCLINATION    = 71.0022
RA_OF_ASC_NODE = 134.5957
ARG_OF_PERICENTER = 214.5018
MEAN_ANOMALY   = 145.4946

EPHEMERIS_TYPE = 0
CLASSIFICATION_TYPE = U
NORAD_CAT_ID   = 26070
ELEMENT_SET_NO = 999
REV_AT_EPOCH   = 34608
BSTAR          = .30501302E-4
MEAN_MOTION_DOT = .12E-6
MEAN_MOTION_DDOT = 0

CCSDS_OMM_VERS = 2.0
CREATION_DATE  = 
ORIGINATOR     = 

OBJECT_NAME    = TITAN 4B R/B
OBJECT_ID      = 2000-047B
CENTER_NAME    = EARTH
REF_FRAME      = TEME
TIME_SYSTEM    = UTC
MEAN_ELEMENT_THEORY = SGP/SGP4

EPOCH          = 2026-02-20T04:52:51.212928
MEAN_MOTION    = 15.09395380
ECCENTRICITY   = .00374981
INCLINATION    = 67.9877
RA_OF_ASC_NODE = 89.6765
ARG_OF_PERICENTER = 56.5431
MEAN_ANOMALY   = 303.9294

EPHEMERIS_TYPE = 0
CLASSIFICATION_TYPE = U
NORAD_CAT_ID   = 26474
ELEMENT_SET_NO = 999
REV_AT_EPOCH   = 39027
BSTAR          = .16286464E-3
MEAN_MOTION_DOT = .2514E-4
MEAN_MOTION_DDOT = 0

CCSDS_OMM_VERS = 2.0
CREATION_DATE  = 
ORIGINATOR     = 

OBJECT_NAME    = ENVISAT
OBJECT_ID      = 2002-009A
CENTER_NAME    = EARTH
REF_FRAME      = TEME
TIME_SYSTEM    = UTC
MEAN_ELEMENT_THEORY = SGP/SGP4

EPOCH          = 2026-02-20T07:40:10.671744
MEAN_MOTION    = 14.39029882
ECCENTRICITY   = .00013597
INCLINATION    = 98.3700
RA_OF_ASC_NODE = 5.3338
ARG_OF_PERICENTER = 87.2909
MEAN_ANOMALY   = 81.8508

EPHEMERIS_TYPE = 0
CLASSIFICATION_TYPE = U
NORAD_CAT_ID   = 27386
ELEMENT_SET_NO = 999
REV_AT_EPOCH   = 25667
BSTAR          = .47954264E-4
MEAN_MOTION_DOT = .105E-5
MEAN_MOTION_DDOT = 0

