SL-16 R/B               
1 25400U 98043G   26050.83991628  .00000054  00000+0  41472-4 0  9994
2 25400  98.8224   4.0803 0010889  68.2881 291.9457 14.26045270436449
SL-16 R/B               
1 25407U 98045B   26050.84427785  .00000151  00000+0  10055-3 0  9992
2 25407  71.0095 219.1006 0005821  39.1196 321.0347 14.16190680424574
ISS (ZARYA)             
1 25544U 98067A   26051.21610692  .00009352  00000+0  18284-3 0  9995
2 25544  51.6324 158.7245 0008575 115.0388 245.1491 15.48153499553622
CZ-4B R/B               
1 25732U 99025C   26051.09234327  .00000047  00000+0  43294-4 0  9994
2 25732  98.6664  95.7877 0037701  37.0038 350.8363 14.18261655385678
OKEAN-O                 
1 25860U 99039A   26051.14510206  .00000601  00000+0  85688-4 0  9999
2 25860  97.9482 111.2116 0001683  78.7943 281.3458 14.80304976431798
SL-16 R/B               
1 25861U 99039B   26051.14152885  .00000503  00000+0  70686-4 0  9998
2 25861  98.0006 110.2608 0013821 318.2283  41.7874 14.81705045434262
DELTA 2 R/B             
1 25876U 99041E   26051.23896772  .00001388  00000+0  26104-3 0  9994
2 25876  51.7662  10.9708 0502222 296.9009  58.1443 14.11770715360569
HELIOS 1B               
1 25977U 99064A   26051.22606566  .00001600  00000+0  18242-3 0  9991
2 25977  98.1715 312.9549 0002355  98.8337 261.3145 14.87620158682661
TERRA                   
1 25994U 99068A   26051.25364767  .00000362  00000+0  82836-4 0  9996
2 25994  97.9632 105.3512 0001461 202.2923 232.4588 14.60994334392533
SL-16 R/B               
1 26070U 00006B   26051.20829889  .00000012  00000+0  30501-4 0  9996
2 26070  71.0022 134.5957 0017875 214.5018 145.4946 14.15818370346084
TITAN 4B R/B            
1 26474U 00047B   26051.20337052  .00002514  00000+0  16286-3 0  9997
2 26474  67.9877  89.6765 0037498  56.5431 303.9294 15.09395380390279
ENVISAT                 
1 27386U 02009A   26051.31956796  .00000105  00000+0  47954-4 0  9995
2 27386  98.3700   5.3338 0001359  87.2909  81.8508 14.39029882256672
